KUIPER-00079            
1 64826U 25151L   25214.51087537  .00023154  00000+0  65992-3 0  9998
2 64826  51.8782 204.4372 0005969 193.0685 167.0147 15.35958062  3847
KUIPER-00080            
1 64827U 25151M   25214.57916254  .00015081  00000+0  43820-3 0  9998
2 64827  51.8783 204.1468 0004929 203.1041 156.9724 15.35666110  2652
KUIPER-00082            
1 64828U 25151N   25214.57797063  .00014282  00000+0  41426-3 0  9996
2 64828  51.8778 204.1344 0005321 198.8142 161.2648 15.35765348  2656
KUIPER-00083            
1 64829U 25151P   25214.45192894  .00023495  00000+0  68275-3 0  9992
2 64829  51.8771 204.7868 0005152 206.6649 153.4072 15.35345098  3829
KUIPER-00084            
1 64830U 25151Q   25214.58334491 -.00028390  00000+0 -96325-3 0  9997
2 64830  51.8788 204.2774 0005589 210.1322  92.1269 15.29705817  2370
KUIPER-00085            
1 64831U 25151R   25214.57632496  .00015559  00000+0  44879-3 0  9991
2 64831  51.8780 204.1251 0005914 195.6873 164.3931 15.35864736  2654
KUIPER-00086            
1 64832U 25151S   25214.58373521  .00022027  00000+0  64371-3 0  9991
2 64832  51.8773 204.1717 0005547 218.1866 141.8727 15.35204848  2654
KUIPER-00087            
1 64833U 25151T   25214.44863722  .00021306  00000+0  61475-3 0  9995
2 64833  51.8781 204.7715 0005240 195.5495 164.5330 15.35628164  2635
